{"type": "FeatureCollection", "features": [{"type": "Feature", "geometry": {"type": "Point", "coordinates": [12.4591846, 55.6648012]}, "properties": {"kind": "s-tog", "name": "R\u00f8dovre", "osm_id": 24954656}}, {"type": "Feature", "geometry": {"type": "Point", "coordinates": [12.5414024, 55.7062098]}, "properties": {"kind": "s-tog", "name": "Bispebjerg", "osm_id": 24960728}}, {"type": "Feature", "geometry": {"type": "Point", "coordinates": [12.5723525, 55.7517662]}, "properties": {"kind": "s-tog", "name": "Charlottenlund", "osm_id": 25872825}}, {"type": "Feature", "geometry": {"type": "Point", "coordinates": [12.5578091, 55.7428089]}, "properties": {"kind": "s-tog", "name": "Bernstorffsvej", "osm_id": 25872886}}, {"type": "Feature", "geometry": {"type": "Point", "coordinates": [12.5215091, 55.7618855]}, "properties": {"kind": "s-tog", "name": "J\u00e6gersborg", "osm_id": 28321802}}, {"type": "Feature", "geometry": {"type": "Point", "coordinates": [12.5056057, 55.7739166]}, "properties": {"kind": "s-tog", "name": "Lyngby Lokal", "osm_id": 28321846}}, {"type": "Feature", "geometry": {"type": "Point", "coordinates": [12.4555838, 55.6256622]}, "properties": {"kind": "s-tog", "name": "Aved\u00f8re", "osm_id": 286885968}}, {"type": "Feature", "geometry": {"type": "Point", "coordinates": [12.483656, 55.6294229]}, "properties": {"kind": "s-tog", "name": "Friheden", "osm_id": 286886106}}, {"type": "Feature", "geometry": {"type": "Point", "coordinates": [12.4998659, 55.6397684]}, "properties": {"kind": "s-tog", "name": "\u00c5marken", "osm_id": 286886137}}, {"type": "Feature", "geometry": {"type": "Point", "coordinates": [12.5267123, 55.6515213]}, "properties": {"kind": "s-tog", "name": "Sj\u00e6l\u00f8r", "osm_id": 286886199}}, {"type": "Feature", "geometry": {"type": "Point", "coordinates": [12.5376084, 55.6548839]}, "properties": {"kind": "s-tog", "name": "Sydhavn", "osm_id": 286886246}}, {"type": "Feature", "geometry": {"type": "Point", "coordinates": [12.4435483, 55.7188384]}, "properties": {"kind": "s-tog", "name": "Herlev", "osm_id": 494382792}}, {"type": "Feature", "geometry": {"type": "Point", "coordinates": [12.4941762, 55.7471585]}, "properties": {"kind": "s-tog", "name": "Buddinge", "osm_id": 494382836}}, {"type": "Feature", "geometry": {"type": "Point", "coordinates": [12.469386, 55.6988768]}, "properties": {"kind": "s-tog", "name": "Islev", "osm_id": 586436631}}, {"type": "Feature", "geometry": {"type": "Point", "coordinates": [12.4779237, 55.6903652]}, "properties": {"kind": "s-tog", "name": "Jyllingevej", "osm_id": 586436651}}, {"type": "Feature", "geometry": {"type": "Point", "coordinates": [12.56241, 55.675817]}, "properties": {"kind": "s-tog", "name": "Vesterport", "osm_id": 593753668}}, {"type": "Feature", "geometry": {"type": "Point", "coordinates": [12.5595897, 55.6650983]}, "properties": {"kind": "s-tog", "name": "Dybb\u00f8lsbro", "osm_id": 593765406}}, {"type": "Feature", "geometry": {"type": "Point", "coordinates": [12.5596915, 55.7154843]}, "properties": {"kind": "s-tog", "name": "Ryparken", "osm_id": 593869905}}, {"type": "Feature", "geometry": {"type": "Point", "coordinates": [12.5788253, 55.7155342]}, "properties": {"kind": "s-tog", "name": "Svanem\u00f8llen", "osm_id": 595293336}}, {"type": "Feature", "geometry": {"type": "Point", "coordinates": [12.5910118, 55.7049718]}, "properties": {"kind": "s-tog", "name": "Nordhavn", "osm_id": 595296652}}, {"type": "Feature", "geometry": {"type": "Point", "coordinates": [12.4545574, 55.7615864]}, "properties": {"kind": "s-tog", "name": "Bagsv\u00e6rd", "osm_id": 597426641}}, {"type": "Feature", "geometry": {"type": "Point", "coordinates": [12.4731006, 55.7567178]}, "properties": {"kind": "s-tog", "name": "Steng\u00e5rden", "osm_id": 597426666}}, {"type": "Feature", "geometry": {"type": "Point", "coordinates": [12.5242143, 55.7392848]}, "properties": {"kind": "s-tog", "name": "Vangede", "osm_id": 597729973}}, {"type": "Feature", "geometry": {"type": "Point", "coordinates": [12.5079642, 55.7446631]}, "properties": {"kind": "s-tog", "name": "Kildebakke", "osm_id": 597730004}}, {"type": "Feature", "geometry": {"type": "Point", "coordinates": [12.5360326, 55.7323761]}, "properties": {"kind": "s-tog", "name": "Dysseg\u00e5rd", "osm_id": 597730022}}, {"type": "Feature", "geometry": {"type": "Point", "coordinates": [12.566911, 55.7305908]}, "properties": {"kind": "s-tog", "name": "Hellerup", "osm_id": 598201521}}, {"type": "Feature", "geometry": {"type": "Point", "coordinates": [12.541436, 55.7535946]}, "properties": {"kind": "s-tog", "name": "Gentofte", "osm_id": 598205283}}, {"type": "Feature", "geometry": {"type": "Point", "coordinates": [12.5378036, 55.7006813]}, "properties": {"kind": "s-tog", "name": "N\u00f8rrebro", "osm_id": 610619173}}, {"type": "Feature", "geometry": {"type": "Point", "coordinates": [12.5266803, 55.6953074]}, "properties": {"kind": "s-tog", "name": "Fuglebakken", "osm_id": 611297799}}, {"type": "Feature", "geometry": {"type": "Point", "coordinates": [12.4988664, 55.6855434]}, "properties": {"kind": "s-tog", "name": "Flintholm", "osm_id": 611305003}}, {"type": "Feature", "geometry": {"type": "Point", "coordinates": [12.5153054, 55.6905327]}, "properties": {"kind": "s-tog", "name": "Gr\u00f8ndal", "osm_id": 611305065}}, {"type": "Feature", "geometry": {"type": "Point", "coordinates": [12.4937549, 55.6643892]}, "properties": {"kind": "s-tog", "name": "Dansh\u00f8j", "osm_id": 611318182}}, {"type": "Feature", "geometry": {"type": "Point", "coordinates": [12.4931707, 55.6720657]}, "properties": {"kind": "s-tog", "name": "\u00c5lholm", "osm_id": 611318209}}, {"type": "Feature", "geometry": {"type": "Point", "coordinates": [12.4923389, 55.6778138]}, "properties": {"kind": "s-tog", "name": "KB Hallen", "osm_id": 611318230}}, {"type": "Feature", "geometry": {"type": "Point", "coordinates": [12.4990504, 55.6597688]}, "properties": {"kind": "s-tog", "name": "Vigerslev All\u00e9", "osm_id": 611325250}}, {"type": "Feature", "geometry": {"type": "Point", "coordinates": [12.5410549, 55.7207286]}, "properties": {"kind": "s-tog", "name": "Emdrup", "osm_id": 659992474}}, {"type": "Feature", "geometry": {"type": "Point", "coordinates": [12.516191, 55.6526314]}, "properties": {"kind": "s-tog", "name": "K\u00f8benhavn Syd", "osm_id": 1017968484}}, {"type": "Feature", "geometry": {"type": "Point", "coordinates": [12.4410201, 55.6650504]}, "properties": {"kind": "s-tog", "name": "Br\u00f8ndby\u00f8ster", "osm_id": 1023040928}}, {"type": "Feature", "geometry": {"type": "Point", "coordinates": [12.4750154, 55.6644909]}, "properties": {"kind": "s-tog", "name": "Hvidovre", "osm_id": 1036553605}}, {"type": "Feature", "geometry": {"type": "Point", "coordinates": [12.5040869, 55.6673952]}, "properties": {"kind": "s-tog", "name": "Langgade", "osm_id": 1036553606}}, {"type": "Feature", "geometry": {"type": "Point", "coordinates": [12.5036407, 55.6780325]}, "properties": {"kind": "s-tog", "name": "Peter Bangs Vej", "osm_id": 1040169361}}, {"type": "Feature", "geometry": {"type": "Point", "coordinates": [12.5802183, 55.6283839]}, "properties": {"kind": "regionaltog", "name": "\u00d8restad", "osm_id": 1057447783}}, {"type": "Feature", "geometry": {"type": "Point", "coordinates": [12.601581, 55.6297987]}, "properties": {"kind": "regionaltog", "name": "T\u00e5rnby", "osm_id": 1057448125}}, {"type": "Feature", "geometry": {"type": "Point", "coordinates": [12.5131859, 55.6834487]}, "properties": {"kind": "metro", "name": "Lindevang", "osm_id": 1271230723}}, {"type": "Feature", "geometry": {"type": "Point", "coordinates": [12.6492236, 55.6309113]}, "properties": {"kind": "metro", "name": "Lufthavnen (Metro)", "osm_id": 1742785276}}, {"type": "Feature", "geometry": {"type": "Point", "coordinates": [12.5755841, 55.619371]}, "properties": {"kind": "metro", "name": "Vestamager", "osm_id": 2042342677}}, {"type": "Feature", "geometry": {"type": "Point", "coordinates": [12.579355, 55.6290128]}, "properties": {"kind": "metro", "name": "\u00d8restad", "osm_id": 2089115303}}, {"type": "Feature", "geometry": {"type": "Point", "coordinates": [12.5835616, 55.7628994]}, "properties": {"kind": "s-tog", "name": "Ordrup", "osm_id": 2093979759}}, {"type": "Feature", "geometry": {"type": "Point", "coordinates": [12.638338, 55.6451882]}, "properties": {"kind": "metro", "name": "Fem\u00f8ren", "osm_id": 2705309629}}, {"type": "Feature", "geometry": {"type": "Point", "coordinates": [12.6318585, 55.6561353]}, "properties": {"kind": "metro", "name": "Amager Strand", "osm_id": 2705309632}}, {"type": "Feature", "geometry": {"type": "Point", "coordinates": [12.6469508, 55.6357222]}, "properties": {"kind": "metro", "name": "Kastrup", "osm_id": 2705309633}}, {"type": "Feature", "geometry": {"type": "Point", "coordinates": [12.582926, 55.6380729]}, "properties": {"kind": "metro", "name": "Bella Center", "osm_id": 2705324067}}, {"type": "Feature", "geometry": {"type": "Point", "coordinates": [12.6287182, 55.6614401]}, "properties": {"kind": "metro", "name": "\u00d8resund", "osm_id": 2705324072}}, {"type": "Feature", "geometry": {"type": "Point", "coordinates": [12.5890175, 55.6557682]}, "properties": {"kind": "metro", "name": "DR Byen", "osm_id": 2705324074}}, {"type": "Feature", "geometry": {"type": "Point", "coordinates": [12.5857172, 55.6452516]}, "properties": {"kind": "metro", "name": "Sundby", "osm_id": 2705324076}}, {"type": "Feature", "geometry": {"type": "Point", "coordinates": [12.5852113, 55.6634112]}, "properties": {"kind": "metro", "name": "Islands Brygge", "osm_id": 2705324077}}, {"type": "Feature", "geometry": {"type": "Point", "coordinates": [12.5880869, 55.7767944]}, "properties": {"kind": "s-tog", "name": "Klampenborg", "osm_id": 2951409808}}, {"type": "Feature", "geometry": {"type": "Point", "coordinates": [12.513124, 55.7706277]}, "properties": {"kind": "s-tog", "name": "N\u00f8rgaardsvej", "osm_id": 3626973487}}, {"type": "Feature", "geometry": {"type": "Point", "coordinates": [12.649417, 55.6295551]}, "properties": {"kind": "regionaltog", "name": "K\u00f8benhavns Lufthavn Kastrup", "osm_id": 3739700409}}, {"type": "Feature", "geometry": {"type": "Point", "coordinates": [12.5653736, 55.6724527]}, "properties": {"kind": "regionaltog", "name": "K\u00f8benhavns Hovedbaneg\u00e5rd", "osm_id": 3739700410}}, {"type": "Feature", "geometry": {"type": "Point", "coordinates": [12.5361547, 55.6634508]}, "properties": {"kind": "s-tog", "name": "Carlsberg", "osm_id": 4280112495}}, {"type": "Feature", "geometry": {"type": "Point", "coordinates": [12.5883611, 55.693346]}, "properties": {"kind": "s-tog", "name": "\u00d8sterport", "osm_id": 4989664667}}, {"type": "Feature", "geometry": {"type": "Point", "coordinates": [12.5717693, 55.6834327]}, "properties": {"kind": "s-tog", "name": "N\u00f8rreport", "osm_id": 4993155222}}, {"type": "Feature", "geometry": {"type": "Point", "coordinates": [12.4925009, 55.6871452]}, "properties": {"kind": "metro", "name": "Vanl\u00f8se", "osm_id": 5066122139}}, {"type": "Feature", "geometry": {"type": "Point", "coordinates": [12.4915039, 55.6871724]}, "properties": {"kind": "s-tog", "name": "Vanl\u00f8se", "osm_id": 5066122140}}, {"type": "Feature", "geometry": {"type": "Point", "coordinates": [12.4994896, 55.6858744]}, "properties": {"kind": "metro", "name": "Flintholm", "osm_id": 5072901609}}, {"type": "Feature", "geometry": {"type": "Point", "coordinates": [12.5135924, 55.6637755]}, "properties": {"kind": "s-tog", "name": "Valby", "osm_id": 5073252188}}, {"type": "Feature", "geometry": {"type": "Point", "coordinates": [12.5135391, 55.6636302]}, "properties": {"kind": "regionaltog", "name": "Valby", "osm_id": 5073252189}}, {"type": "Feature", "geometry": {"type": "Point", "coordinates": [12.564607, 55.6721858]}, "properties": {"kind": "s-tog", "name": "K\u00f8benhavns Hovedbaneg\u00e5rd", "osm_id": 5096749954}}, {"type": "Feature", "geometry": {"type": "Point", "coordinates": [12.4631515, 55.710287]}, "properties": {"kind": "s-tog", "name": "Husum", "osm_id": 5126423536}}, {"type": "Feature", "geometry": {"type": "Point", "coordinates": [12.5886325, 55.7768088]}, "properties": {"kind": "regionaltog", "name": "Klampenborg", "osm_id": 5680478829}}, {"type": "Feature", "geometry": {"type": "Point", "coordinates": [12.6170475, 55.662236]}, "properties": {"kind": "metro", "name": "Lergravsparken", "osm_id": 5715956175}}, {"type": "Feature", "geometry": {"type": "Point", "coordinates": [12.6028945, 55.6633965]}, "properties": {"kind": "metro", "name": "Amagerbro", "osm_id": 5715956176}}, {"type": "Feature", "geometry": {"type": "Point", "coordinates": [12.5913771, 55.6720958]}, "properties": {"kind": "metro", "name": "Christianshavn", "osm_id": 5715956177}}, {"type": "Feature", "geometry": {"type": "Point", "coordinates": [12.5850827, 55.6796344]}, "properties": {"kind": "metro", "name": "Kongens Nytorv", "osm_id": 5715956178}}, {"type": "Feature", "geometry": {"type": "Point", "coordinates": [12.5525408, 55.6818073]}, "properties": {"kind": "metro", "name": "Forum", "osm_id": 5715956180}}, {"type": "Feature", "geometry": {"type": "Point", "coordinates": [12.5322237, 55.6811699]}, "properties": {"kind": "metro", "name": "Frederiksberg", "osm_id": 5715956181}}, {"type": "Feature", "geometry": {"type": "Point", "coordinates": [12.5235687, 55.6815945]}, "properties": {"kind": "metro", "name": "Fasanvej", "osm_id": 5715956182}}, {"type": "Feature", "geometry": {"type": "Point", "coordinates": [12.5031145, 55.7680595]}, "properties": {"kind": "s-tog", "name": "Lyngby", "osm_id": 5762708641}}, {"type": "Feature", "geometry": {"type": "Point", "coordinates": [12.5212336, 55.7617434]}, "properties": {"kind": "s-tog", "name": "J\u00e6gersborg", "osm_id": 5785023300}}, {"type": "Feature", "geometry": {"type": "Point", "coordinates": [12.5343368, 55.6489712]}, "properties": {"kind": "metro", "name": "Mozarts Plads", "osm_id": 5974664508}}, {"type": "Feature", "geometry": {"type": "Point", "coordinates": [12.544414, 55.6458281]}, "properties": {"kind": "metro", "name": "Sluseholmen", "osm_id": 5974664509}}, {"type": "Feature", "geometry": {"type": "Point", "coordinates": [12.5565102, 55.6540722]}, "properties": {"kind": "metro", "name": "Enghave Brygge", "osm_id": 5974664510}}, {"type": "Feature", "geometry": {"type": "Point", "coordinates": [12.5593142, 55.6609865]}, "properties": {"kind": "metro", "name": "Havneholmen", "osm_id": 5974664511}}, {"type": "Feature", "geometry": {"type": "Point", "coordinates": [12.5159673, 55.6529886]}, "properties": {"kind": "metro", "name": "K\u00f8benhavn Syd", "osm_id": 5974664512}}, {"type": "Feature", "geometry": {"type": "Point", "coordinates": [12.5951777, 55.7118379]}, "properties": {"kind": "metro", "name": "Orientkaj", "osm_id": 6041192146}}, {"type": "Feature", "geometry": {"type": "Point", "coordinates": [12.5638753, 55.6714003]}, "properties": {"kind": "metro", "name": "K\u00f8benhavns Hovedbaneg\u00e5rd", "osm_id": 6836386876}}, {"type": "Feature", "geometry": {"type": "Point", "coordinates": [12.5682006, 55.6764406]}, "properties": {"kind": "metro", "name": "R\u00e5dhuspladsen", "osm_id": 6836386877}}, {"type": "Feature", "geometry": {"type": "Point", "coordinates": [12.5712413, 55.6838]}, "properties": {"kind": "metro", "name": "N\u00f8rreport", "osm_id": 6836386878}}, {"type": "Feature", "geometry": {"type": "Point", "coordinates": [12.5789275, 55.6775945]}, "properties": {"kind": "metro", "name": "Gammel Strand", "osm_id": 6836386879}}, {"type": "Feature", "geometry": {"type": "Point", "coordinates": [12.5467948, 55.667227]}, "properties": {"kind": "metro", "name": "Enghave Plads", "osm_id": 6836434801}}, {"type": "Feature", "geometry": {"type": "Point", "coordinates": [12.5406118, 55.6735083]}, "properties": {"kind": "metro", "name": "Frederiksberg All\u00e9", "osm_id": 6836434802}}, {"type": "Feature", "geometry": {"type": "Point", "coordinates": [12.5489348, 55.693528]}, "properties": {"kind": "metro", "name": "N\u00f8rrebros Runddel", "osm_id": 6836446142}}, {"type": "Feature", "geometry": {"type": "Point", "coordinates": [12.5379713, 55.7000485]}, "properties": {"kind": "metro", "name": "N\u00f8rrebro", "osm_id": 6836446143}}, {"type": "Feature", "geometry": {"type": "Point", "coordinates": [12.5329471, 55.6860507]}, "properties": {"kind": "metro", "name": "Aksel M\u00f8llers Have", "osm_id": 6836446144}}, {"type": "Feature", "geometry": {"type": "Point", "coordinates": [12.5425294, 55.6884779]}, "properties": {"kind": "metro", "name": "Nuuks Plads", "osm_id": 6836446145}}, {"type": "Feature", "geometry": {"type": "Point", "coordinates": [12.5487689, 55.7034992]}, "properties": {"kind": "metro", "name": "Skjolds Plads", "osm_id": 6836466111}}, {"type": "Feature", "geometry": {"type": "Point", "coordinates": [12.5647764, 55.7063956]}, "properties": {"kind": "metro", "name": "Vibenhus Runddel", "osm_id": 6836624243}}, {"type": "Feature", "geometry": {"type": "Point", "coordinates": [12.5859236, 55.692878]}, "properties": {"kind": "metro", "name": "\u00d8sterport", "osm_id": 6836648163}}, {"type": "Feature", "geometry": {"type": "Point", "coordinates": [12.5890307, 55.6851258]}, "properties": {"kind": "metro", "name": "Marmorkirken", "osm_id": 6836648164}}, {"type": "Feature", "geometry": {"type": "Point", "coordinates": [12.575555, 55.6992513]}, "properties": {"kind": "metro", "name": "Trianglen", "osm_id": 6836652392}}, {"type": "Feature", "geometry": {"type": "Point", "coordinates": [12.5761362, 55.7094751]}, "properties": {"kind": "metro", "name": "Poul Henningsens Plads", "osm_id": 6836652393}}, {"type": "Feature", "geometry": {"type": "Point", "coordinates": [12.5915656, 55.7074271]}, "properties": {"kind": "metro", "name": "Nordhavn", "osm_id": 7339730678}}, {"type": "Feature", "geometry": {"type": "Point", "coordinates": [12.5727632, 55.6838484]}, "properties": {"kind": "regionaltog", "name": "N\u00f8rreport", "osm_id": 7891926537}}, {"type": "Feature", "geometry": {"type": "Point", "coordinates": [12.5887669, 55.6931402]}, "properties": {"kind": "regionaltog", "name": "\u00d8sterport", "osm_id": 7899100664}}, {"type": "Feature", "geometry": {"type": "Point", "coordinates": [12.5154898, 55.6525525]}, "properties": {"kind": "regionaltog", "name": "K\u00f8benhavn Syd", "osm_id": 7919000439}}]}